QIANFAN-9               
1 60387U 24140J   25228.32896693  .00000118  00000+0  16363-3 0  9991
2 60387  88.9840 311.5793 0016997 172.8862 187.2533 13.50960114 51339
QIANFAN-10              
1 60388U 24140K   25228.33308120  .00000104  00000+0  14162-3 0  9996
2 60388  88.9848 310.9154 0016182 151.2455 208.9592 13.50962134 51720
QIANFAN-11              
1 60389U 24140L   25228.37006565  .00000106  00000+0  14507-3 0  9994
2 60389  88.9776 311.5864 0015046 171.5706 188.5700 13.50962440 51227
QIANFAN-12              
1 60390U 24140M   25228.31651584  .00000116  00000+0  16099-3 0  9996
2 60390  88.9818 311.5835 0013586 178.7830 181.3357 13.50962380 51297
QIANFAN-13              
1 60391U 24140N   25228.36179765  .00000106  00000+0  14521-3 0  9995
2 60391  88.9831 311.6641 0013324 181.0721 179.0404 13.50962216 51278
QIANFAN-14              
1 60392U 24140P   25228.31236551  .00000112  00000+0  15490-3 0  9991
2 60392  88.9809 311.5922 0016966 183.1665 176.9382 13.50963390 51275
QIANFAN-15              
1 60393U 24140Q   25228.32075953  .00000114  00000+0  15764-3 0  9996
2 60393  88.9832 311.5199 0013305 167.7908 192.3568 13.50967163 51359
QIANFAN-16              
1 60394U 24140R   25228.38242766  .00000108  00000+0  14887-3 0  9999
2 60394  88.9836 311.6300 0014770 185.7902 174.3080 13.50962474 51315
